STARLINK-33876          
1 63639U 25083F   26068.21275973  .00036989  00000+0  13465-2 0  9998
2 63639  43.0046   7.9222 0001618 268.9865  91.0801 15.27590776 49997
2025-313BE              
1 67482U 25313BE  26068.69721505  .00077178  00000+0  26504-2 0  9996
2 67482  97.3989 145.3568 0007208 335.3714  24.7181 15.29801687  7972
